OBJECT_NAME,OBJECT_ID,EPOCH,MEAN_MOTION,ECCENTRICITY,INCLINATION,RA_OF_ASC_NODE,ARG_OF_PERICENTER,MEAN_ANOMALY,EPHEMERIS_TYPE,CLASSIFICATION_TYPE,NORAD_CAT_ID,ELEMENT_SET_NO,REV_AT_EPOCH,BSTAR,MEAN_MOTION_DOT,MEAN_MOTION_DDOT
KZ-11 R/B,2026-138H,2026-07-10T10:39:09.784800,15.39315078,.03918319,55.1536,178.8749,137.5058,225.7022,0,U,69628,999,351,.8082617E-3,.80653E-2,.9691414E-5
CENTISPACE-1 GROUP 05 OBJECT J,2026-138J,2026-07-10T17:19:30.586656,14.15843194,.0009313,55.1383,194.2141,335.0394,25.0129,0,U,69636,999,332,-.87117E-4,-.326E-5,0
VICTUS HAZE PUMA,2026-142A,2026-07-10T20:05:14.845632,15.20828879,.0025108,97.4474,89.1909,282.1274,77.7149,0,U,69646,999,326,.1132E-3,.2446E-4,0
HOKUSHIN-1,1998-067YH,2026-07-10T11:02:50.732160,15.50847781,.00061379,51.6308,184.7285,312.4876,47.5594,0,U,69648,999,326,.30218505E-3,.1736E-3,0
STARLINK-37656,2026-143A,2026-07-10T20:00:01.999008,15.49192378,.0000946,97.2856,235.6747,99.3465,311.8921,0,U,69649,999,426,-.35309E-3,-.19249E-3,0
STARLINK-37646,2026-143B,2026-07-10T20:00:01.999008,15.55306234,.0001669,97.2855,235.8503,53.8032,36.1124,0,U,69650,999,426,-.41676E-1,-.2458935E-1,0
STARLINK-37749,2026-143C,2026-07-10T20:00:01.999008,15.51827228,.0000852,97.2843,235.8380,77.5918,344.4891,0,U,69651,999,426,-.6099E-1,-.319701E-1,0
STARLINK-37819,2026-143D,2026-07-10T20:00:01.999008,15.50926231,.0001662,97.2850,235.8093,92.2281,266.1105,0,U,69652,999,426,-.45843E-1,-.2325041E-1,0
STARLINK-37729,2026-143E,2026-07-10T08:00:03.000384,15.82623624,.00011528,97.2831,235.4414,188.4604,228.7308,0,U,69653,999,418,.28753844E-3,.60128E-3,0
STARLINK-37838,2026-143F,2026-07-10T20:00:01.999008,15.56767021,.0001936,97.2851,235.8683,72.1751,74.1679,0,U,69654,999,426,-.42892E-1,-.2699119E-1,0
STARLINK-37884,2026-143G,2026-07-10T20:00:01.999008,15.49199760,.0001269,97.2855,235.7872,75.9662,236.7304,0,U,69655,999,426,-.27083E-3,-.14798E-3,0
STARLINK-37876,2026-143H,2026-07-10T20:00:01.999008,15.55224247,.0001781,97.2863,235.8759,66.2724,83.8818,0,U,69656,999,416,-.42013E-1,-.2469755E-1,0
STARLINK-37784,2026-143J,2026-07-10T20:00:01.999008,15.49176101,.0001689,97.2849,235.8040,71.9307,282.4193,0,U,69657,999,416,-.72801E-4,-.4046E-4,0
STARLINK-37851,2026-143K,2026-07-10T20:00:01.999008,15.53423266,.0001859,97.2858,235.8731,71.7519,72.3265,0,U,69658,999,415,-.44099E-1,-.2432055E-1,0
STARLINK-37229,2026-143L,2026-07-10T20:00:01.999008,15.49614945,.000164,97.2852,235.8237,99.9511,301.1107,0,U,69659,999,420,-.13198E-1,-.669921E-2,0
STARLINK-37556,2026-143M,2026-07-10T20:00:01.999008,15.53769302,.0001559,97.2865,235.8532,76.0433,22.1463,0,U,69660,999,420,-.41458E-1,-.2329743E-1,0
STARLINK-37867,2026-143N,2026-07-10T20:00:01.999008,15.53330235,.0001512,97.2857,235.8733,70.2422,72.5322,0,U,69661,999,416,-.43831E-1,-.2411744E-1,0
STARLINK-37852,2026-143P,2026-07-10T20:00:01.999008,15.49165306,.0001552,97.2849,235.7940,79.0437,252.4283,0,U,69662,999,416,-.37001E-5,-.292E-5,0
STARLINK-37554,2026-143Q,2026-07-10T20:00:01.999008,15.52733014,.0001326,97.2853,235.8490,66.9577,23.1645,0,U,69663,999,420,-.26865E-1,-.1478368E-1,0
STARLINK-37830,2026-143R,2026-07-10T20:00:01.999008,15.49168417,.0001852,97.2851,235.8105,88.1435,283.3224,0,U,69664,999,415,-.23852E-4,-.1387E-4,0
STARLINK-37837,2026-143S,2026-07-10T20:00:01.999008,15.56047569,.0001976,97.2859,235.8703,63.4640,75.5161,0,U,69665,999,416,-.4069E-1,-.2466892E-1,0
STARLINK-37943,2026-143T,2026-07-10T20:00:01.999008,15.49158595,.00019,97.2851,235.8126,79.1499,295.2839,0,U,69666,999,416,-.10121E-4,-.64E-5,0
STARLINK-37941,2026-143U,2026-07-10T20:00:01.999008,15.51451936,.0001373,97.2851,235.8458,82.8318,0.7208,0,U,69667,999,416,-.59588E-1,-.3031194E-1,0
STARLINK-37930,2026-143V,2026-07-10T20:00:01.999008,15.53669798,.0001329,97.2858,235.8456,81.3378,359.9695,0,U,69668,999,415,-.44133E-1,-.2452345E-1,0
STARLINK-37945,2026-143W,2026-07-10T20:00:01.999008,15.53571853,.0001859,97.2857,235.8761,68.1858,85.0744,0,U,69669,999,416,-.44022E-1,-.2439842E-1,0
STARLINK-37948,2026-143X,2026-07-10T20:00:01.999008,15.49194039,.0001034,97.2865,235.7634,88.9874,163.6900,0,U,69670,999,416,-.77955E-4,-.4329E-4,0
STARLINK-37949,2026-143Y,2026-07-10T20:00:01.999008,15.49180567,.000083,97.2851,235.8180,57.1299,331.4933,0,U,69671,999,416,-.25364E-3,-.13856E-3,0
STARLINK-37946,2026-143Z,2026-07-10T20:00:01.999008,15.49169608,.0001467,97.2856,235.8544,71.5269,34.8368,0,U,69672,999,416,-.25453E-3,-.139E-3,0
TJS-26A,2026-144A,2026-07-10T17:32:17.655360,1.00265482,.0003513,6.9565,323.2282,343.7960,352.1905,0,U,69674,999,17,0,-.335E-5,0
CZ-7A R/B,2026-144B,2026-07-10T09:49:31.034208,2.53772939,.7138189,19.4581,317.2694,192.6197,129.3644,0,U,69675,999,44,.56582E-3,.4581E-2,-.71754E-6
