KZ-11 R/B               
1 69628U 26138H   26191.44386325  .00806530  96914-5  80826-3 0  9998
2 69628  55.1536 178.8749 0391831 137.5058 225.7022 15.39315078  3517
CENTISPACE-1 GROUP 05 O*
1 69636U 26138J   26191.72188179 -.00000326  00000+0 -87117-4 0  9992
2 69636  55.1383 194.2141 0009313 335.0394  25.0129 14.15843194  3329
VICTUS HAZE PUMA        
1 69646U 26142A   26191.83697738  .00002446  00000+0  11320-3 0  9991
2 69646  97.4474  89.1909 0025108 282.1274  77.7149 15.20828879  3262
HOKUSHIN-1              
1 69648U 98067YH  26191.46030940  .00017360  00000+0  30219-3 0  9992
2 69648  51.6308 184.7285 0006137 312.4876  47.5594 15.50847781  3262
STARLINK-37656          
1 69649U 26143A   26191.83335647 -.00019249  00000+0 -35309-3 0  9997
2 69649  97.2856 235.6747 0000946  99.3465 311.8921 15.49192378  4268
STARLINK-37646          
1 69650U 26143B   26191.83335647 -.02458935  00000+0 -41676-1 0  9992
2 69650  97.2855 235.8503 0001669  53.8032  36.1124 15.55306234  4266
STARLINK-37749          
1 69651U 26143C   26191.83335647 -.03197010  00000+0 -60990-1 0  9998
2 69651  97.2843 235.8380 0000852  77.5918 344.4891 15.51827228  4269
STARLINK-37819          
1 69652U 26143D   26191.83335647 -.02325041  00000+0 -45843-1 0  9995
2 69652  97.2850 235.8093 0001662  92.2281 266.1105 15.50926231  4267
STARLINK-37729          
1 69653U 26143E   26191.33336806  .00060128  00000+0  28754-3 0  9991
2 69653  97.2831 235.4414 0001152 188.4604 228.7308 15.82623624  4186
STARLINK-37838          
1 69654U 26143F   26191.83335647 -.02699119  00000+0 -42892-1 0  9998
2 69654  97.2851 235.8683 0001936  72.1751  74.1679 15.56767021  4267
STARLINK-37884          
1 69655U 26143G   26191.83335647 -.00014798  00000+0 -27083-3 0  9998
2 69655  97.2855 235.7872 0001269  75.9662 236.7304 15.49199760  4264
STARLINK-37876          
1 69656U 26143H   26191.83335647 -.02469755  00000+0 -42013-1 0  9996
2 69656  97.2863 235.8759 0001781  66.2724  83.8818 15.55224247  4166
STARLINK-37784          
1 69657U 26143J   26191.83335647 -.00004046  00000+0 -72801-4 0  9994
2 69657  97.2849 235.8040 0001689  71.9307 282.4193 15.49176101  4162
STARLINK-37851          
1 69658U 26143K   26191.83335647 -.02432055  00000+0 -44099-1 0  9997
2 69658  97.2858 235.8731 0001859  71.7519  72.3265 15.53423266  4159
STARLINK-37229          
1 69659U 26143L   26191.83335647 -.00669921  00000+0 -13198-1 0  9996
2 69659  97.2852 235.8237 0001640  99.9511 301.1107 15.49614945  4202
STARLINK-37556          
1 69660U 26143M   26191.83335647 -.02329743  00000+0 -41458-1 0  9995
2 69660  97.2865 235.8532 0001559  76.0433  22.1463 15.53769302  4202
STARLINK-37867          
1 69661U 26143N   26191.83335647 -.02411744  00000+0 -43831-1 0  9996
2 69661  97.2857 235.8733 0001512  70.2422  72.5322 15.53330235  4167
STARLINK-37852          
1 69662U 26143P   26191.83335647 -.00000292  00000+0 -37001-5 0  9993
2 69662  97.2849 235.7940 0001552  79.0437 252.4283 15.49165306  4160
STARLINK-37554          
1 69663U 26143Q   26191.83335647 -.01478368  00000+0 -26865-1 0  9990
2 69663  97.2853 235.8490 0001326  66.9577  23.1645 15.52733014  4207
STARLINK-37830          
1 69664U 26143R   26191.83335647 -.00001387  00000+0 -23852-4 0  9999
2 69664  97.2851 235.8105 0001852  88.1435 283.3224 15.49168417  4154
STARLINK-37837          
1 69665U 26143S   26191.83335647 -.02466892  00000+0 -40690-1 0  9994
2 69665  97.2859 235.8703 0001976  63.4640  75.5161 15.56047569  4162
STARLINK-37943          
1 69666U 26143T   26191.83335647 -.00000640  00000+0 -10121-4 0  9997
2 69666  97.2851 235.8126 0001900  79.1499 295.2839 15.49158595  4164
STARLINK-37941          
1 69667U 26143U   26191.83335647 -.03031194  00000+0 -59588-1 0  9996
2 69667  97.2851 235.8458 0001373  82.8318   0.7208 15.51451936  4165
STARLINK-37930          
1 69668U 26143V   26191.83335647 -.02452345  00000+0 -44133-1 0  9991
2 69668  97.2858 235.8456 0001329  81.3378 359.9695 15.53669798  4159
STARLINK-37945          
1 69669U 26143W   26191.83335647 -.02439842  00000+0 -44022-1 0  9996
2 69669  97.2857 235.8761 0001859  68.1858  85.0744 15.53571853  4169
STARLINK-37948          
1 69670U 26143X   26191.83335647 -.00004329  00000+0 -77955-4 0  9998
2 69670  97.2865 235.7634 0001034  88.9874 163.6900 15.49194039  4160
STARLINK-37949          
1 69671U 26143Y   26191.83335647 -.00013856  00000+0 -25364-3 0  9990
2 69671  97.2851 235.8180 0000830  57.1299 331.4933 15.49180567  4167
STARLINK-37946          
1 69672U 26143Z   26191.83335647 -.00013900  00000+0 -25453-3 0  9990
2 69672  97.2856 235.8544 0001467  71.5269  34.8368 15.49169608  4160
TJS-26A                 
1 69674U 26144A   26191.73075990 -.00000335  00000+0  00000+0 0  9998
2 69674   6.9565 323.2282 0003513 343.7960 352.1905  1.00265482   172
CZ-7A R/B               
1 69675U 26144B   26191.40938697  .00458100 -71754-6  56582-3 0  9993
2 69675  19.4581 317.2694 7138189 192.6197 129.3644  2.53772939   441
